[{"OBJECT_NAME":"STARLINK-35359","OBJECT_ID":"2025-211U","EPOCH":"2026-03-21T13:42:36.721440","MEAN_MOTION":15.05654001,"ECCENTRICITY":0.00015228,"INCLINATION":97.6025,"RA_OF_ASC_NODE":125.84,"ARG_OF_PERICENTER":78.7334,"MEAN_ANOMALY":281.4064,"EPHEMERIS_TYPE":0,"CLASSIFICATION_TYPE":"U","NORAD_CAT_ID":65670,"ELEMENT_SET_NO":999,"REV_AT_EPOCH":2883,"BSTAR":0.00058391937,"MEAN_MOTION_DOT":8.375e-5,"MEAN_MOTION_DDOT":0},{"OBJECT_NAME":"STARLINK-35194","OBJECT_ID":"2025-211V","EPOCH":"2026-03-21T13:34:37.514208","MEAN_MOTION":15.05649183,"ECCENTRICITY":8.254e-5,"INCLINATION":97.6017,"RA_OF_ASC_NODE":125.8476,"ARG_OF_PERICENTER":122.4803,"MEAN_ANOMALY":237.6504,"EPHEMERIS_TYPE":0,"CLASSIFICATION_TYPE":"U","NORAD_CAT_ID":65671,"ELEMENT_SET_NO":999,"REV_AT_EPOCH":2883,"BSTAR":0.00046100472,"MEAN_MOTION_DOT":6.597e-5,"MEAN_MOTION_DDOT":0},{"OBJECT_NAME":"STARLINK-35198","OBJECT_ID":"2025-211W","EPOCH":"2026-03-21T13:38:37.655232","MEAN_MOTION":15.05659682,"ECCENTRICITY":0.00016817,"INCLINATION":97.602,"RA_OF_ASC_NODE":125.844,"ARG_OF_PERICENTER":110.6868,"MEAN_ANOMALY":249.4539,"EPHEMERIS_TYPE":0,"CLASSIFICATION_TYPE":"U","NORAD_CAT_ID":65672,"ELEMENT_SET_NO":999,"REV_AT_EPOCH":2883,"BSTAR":0.00058444406,"MEAN_MOTION_DOT":8.384e-5,"MEAN_MOTION_DDOT":0},{"OBJECT_NAME":"STARLINK-35177","OBJECT_ID":"2025-211X","EPOCH":"2026-03-21T13:26:39.485472","MEAN_MOTION":15.0565548,"ECCENTRICITY":0.00013759,"INCLINATION":97.6005,"RA_OF_ASC_NODE":125.8538,"ARG_OF_PERICENTER":101.6579,"MEAN_ANOMALY":258.4802,"EPHEMERIS_TYPE":0,"CLASSIFICATION_TYPE":"U","NORAD_CAT_ID":65673,"ELEMENT_SET_NO":999,"REV_AT_EPOCH":2883,"BSTAR":0.00051675256,"MEAN_MOTION_DOT":7.404e-5,"MEAN_MOTION_DDOT":0},{"OBJECT_NAME":"STARLINK-35254","OBJECT_ID":"2025-211Y","EPOCH":"2026-03-21T13:22:37.689024","MEAN_MOTION":15.05670799,"ECCENTRICITY":4.875e-5,"INCLINATION":97.6008,"RA_OF_ASC_NODE":125.8581,"ARG_OF_PERICENTER":120.9863,"MEAN_ANOMALY":239.1411,"EPHEMERIS_TYPE":0,"CLASSIFICATION_TYPE":"U","NORAD_CAT_ID":65674,"ELEMENT_SET_NO":999,"REV_AT_EPOCH":2883,"BSTAR":0.00033245079,"MEAN_MOTION_DOT":4.742e-5,"MEAN_MOTION_DDOT":0},{"OBJECT_NAME":"STARLINK-34749","OBJECT_ID":"2025-211Z","EPOCH":"2026-03-21T13:30:37.037952","MEAN_MOTION":15.05662753,"ECCENTRICITY":0.0001094,"INCLINATION":97.6013,"RA_OF_ASC_NODE":125.8505,"ARG_OF_PERICENTER":128.5288,"MEAN_ANOMALY":231.6037,"EPHEMERIS_TYPE":0,"CLASSIFICATION_TYPE":"U","NORAD_CAT_ID":65675,"ELEMENT_SET_NO":999,"REV_AT_EPOCH":2883,"BSTAR":0.00033744544,"MEAN_MOTION_DOT":4.813e-5,"MEAN_MOTION_DDOT":0},{"OBJECT_NAME":"STARLINK-35189","OBJECT_ID":"2025-212A","EPOCH":"2026-03-20T07:33:49.423104","MEAN_MOTION":15.30196747,"ECCENTRICITY":0.00012071,"INCLINATION":53.1592,"RA_OF_ASC_NODE":296.0876,"ARG_OF_PERICENTER":98.773,"MEAN_ANOMALY":261.3407,"EPHEMERIS_TYPE":0,"CLASSIFICATION_TYPE":"U","NORAD_CAT_ID":65676,"ELEMENT_SET_NO":999,"REV_AT_EPOCH":2882,"BSTAR":0.00037960082,"MEAN_MOTION_DOT":0.00010899,"MEAN_MOTION_DDOT":0},{"OBJECT_NAME":"STARLINK-35222","OBJECT_ID":"2025-212B","EPOCH":"2026-03-21T13:43:35.679072","MEAN_MOTION":15.3023033,"ECCENTRICITY":0.00020833,"INCLINATION":53.1584,"RA_OF_ASC_NODE":290.4202,"ARG_OF_PERICENTER":92.5207,"MEAN_ANOMALY":267.6032,"EPHEMERIS_TYPE":0,"CLASSIFICATION_TYPE":"U","NORAD_CAT_ID":65677,"ELEMENT_SET_NO":999,"REV_AT_EPOCH":2907,"BSTAR":0.00099606926,"MEAN_MOTION_DOT":0.00029286,"MEAN_MOTION_DDOT":0},{"OBJECT_NAME":"STARLINK-35233","OBJECT_ID":"2025-212C","EPOCH":"2026-03-21T06:40:25.304160","MEAN_MOTION":15.30207714,"ECCENTRICITY":0.00012547,"INCLINATION":53.1587,"RA_OF_ASC_NODE":292.1449,"ARG_OF_PERICENTER":82.4743,"MEAN_ANOMALY":277.64,"EPHEMERIS_TYPE":0,"CLASSIFICATION_TYPE":"U","NORAD_CAT_ID":65678,"ELEMENT_SET_NO":999,"REV_AT_EPOCH":2902,"BSTAR":0.0011345009,"MEAN_MOTION_DOT":0.00033401,"MEAN_MOTION_DDOT":0},{"OBJECT_NAME":"STARLINK-35205","OBJECT_ID":"2025-212D","EPOCH":"2026-03-20T21:07:00.233184","MEAN_MOTION":15.30216801,"ECCENTRICITY":5.994e-5,"INCLINATION":53.1574,"RA_OF_ASC_NODE":293.9232,"ARG_OF_PERICENTER":62.2424,"MEAN_ANOMALY":297.8638,"EPHEMERIS_TYPE":0,"CLASSIFICATION_TYPE":"U","NORAD_CAT_ID":65679,"ELEMENT_SET_NO":999,"REV_AT_EPOCH":2890,"BSTAR":0.00086561376,"MEAN_MOTION_DOT":0.00025379,"MEAN_MOTION_DDOT":0},{"OBJECT_NAME":"STARLINK-35070","OBJECT_ID":"2025-212E","EPOCH":"2026-03-21T14:45:43.805376","MEAN_MOTION":15.30216466,"ECCENTRICITY":0.00012064,"INCLINATION":53.1581,"RA_OF_ASC_NODE":289.9782,"ARG_OF_PERICENTER":111.8597,"MEAN_ANOMALY":248.2532,"EPHEMERIS_TYPE":0,"CLASSIFICATION_TYPE":"U","NORAD_CAT_ID":65680,"ELEMENT_SET_NO":999,"REV_AT_EPOCH":2907,"BSTAR":0.0011606939,"MEAN_MOTION_DOT":0.00034193,"MEAN_MOTION_DDOT":0},{"OBJECT_NAME":"STARLINK-35230","OBJECT_ID":"2025-212F","EPOCH":"2026-03-21T13:52:42.536640","MEAN_MOTION":15.30225223,"ECCENTRICITY":0.00012457,"INCLINATION":53.1601,"RA_OF_ASC_NODE":290.46,"ARG_OF_PERICENTER":97.2732,"MEAN_ANOMALY":262.841,"EPHEMERIS_TYPE":0,"CLASSIFICATION_TYPE":"U","NORAD_CAT_ID":65681,"ELEMENT_SET_NO":999,"REV_AT_EPOCH":2907,"BSTAR":0.0010270682,"MEAN_MOTION_DOT":0.00030207,"MEAN_MOTION_DDOT":0},{"OBJECT_NAME":"STARLINK-35235","OBJECT_ID":"2025-212G","EPOCH":"2026-03-21T02:07:14.144160","MEAN_MOTION":15.30206611,"ECCENTRICITY":0.00011486,"INCLINATION":53.1572,"RA_OF_ASC_NODE":292.3793,"ARG_OF_PERICENTER":90.5267,"MEAN_ANOMALY":269.5865,"EPHEMERIS_TYPE":0,"CLASSIFICATION_TYPE":"U","NORAD_CAT_ID":65682,"ELEMENT_SET_NO":999,"REV_AT_EPOCH":2894,"BSTAR":0.00065138936,"MEAN_MOTION_DOT":0.00018986,"MEAN_MOTION_DDOT":0},{"OBJECT_NAME":"STARLINK-34886","OBJECT_ID":"2025-212H","EPOCH":"2026-03-21T13:29:53.532096","MEAN_MOTION":15.302431,"ECCENTRICITY":0.00023163,"INCLINATION":53.1575,"RA_OF_ASC_NODE":290.3607,"ARG_OF_PERICENTER":97.692,"MEAN_ANOMALY":262.4344,"EPHEMERIS_TYPE":0,"CLASSIFICATION_TYPE":"U","NORAD_CAT_ID":65683,"ELEMENT_SET_NO":999,"REV_AT_EPOCH":2901,"BSTAR":0.001804931,"MEAN_MOTION_DOT":0.00053557,"MEAN_MOTION_DDOT":0},{"OBJECT_NAME":"STARLINK-34795","OBJECT_ID":"2025-212J","EPOCH":"2026-03-21T13:58:47.135136","MEAN_MOTION":15.30231682,"ECCENTRICITY":0.00013964,"INCLINATION":53.1598,"RA_OF_ASC_NODE":290.4844,"ARG_OF_PERICENTER":110.0841,"MEAN_ANOMALY":250.031,"EPHEMERIS_TYPE":0,"CLASSIFICATION_TYPE":"U","NORAD_CAT_ID":65684,"ELEMENT_SET_NO":999,"REV_AT_EPOCH":2901,"BSTAR":0.00091549588,"MEAN_MOTION_DOT":0.0002688,"MEAN_MOTION_DDOT":0},{"OBJECT_NAME":"STARLINK-35145","OBJECT_ID":"2025-212K","EPOCH":"2026-03-20T21:11:34.019232","MEAN_MOTION":15.30205526,"ECCENTRICITY":0.00013533,"INCLINATION":53.1575,"RA_OF_ASC_NODE":293.9445,"ARG_OF_PERICENTER":103.1379,"MEAN_ANOMALY":256.9773,"EPHEMERIS_TYPE":0,"CLASSIFICATION_TYPE":"U","NORAD_CAT_ID":65685,"ELEMENT_SET_NO":999,"REV_AT_EPOCH":2890,"BSTAR":0.00059734307,"MEAN_MOTION_DOT":0.00017377,"MEAN_MOTION_DDOT":0},{"OBJECT_NAME":"STARLINK-35137","OBJECT_ID":"2025-212L","EPOCH":"2026-03-21T13:47:57.727680","MEAN_MOTION":15.31050235,"ECCENTRICITY":0.00012428,"INCLINATION":53.158,"RA_OF_ASC_NODE":280.45,"ARG_OF_PERICENTER":96.1093,"MEAN_ANOMALY":264.005,"EPHEMERIS_TYPE":0,"CLASSIFICATION_TYPE":"U","NORAD_CAT_ID":65686,"ELEMENT_SET_NO":999,"REV_AT_EPOCH":2915,"BSTAR":0.0014601502,"MEAN_MOTION_DOT":0.00044304,"MEAN_MOTION_DDOT":0},{"OBJECT_NAME":"STARLINK-34856","OBJECT_ID":"2025-212M","EPOCH":"2026-03-19T23:48:05.138496","MEAN_MOTION":15.30202518,"ECCENTRICITY":0.00012139,"INCLINATION":53.159,"RA_OF_ASC_NODE":297.626,"ARG_OF_PERICENTER":80.1163,"MEAN_ANOMALY":279.9974,"EPHEMERIS_TYPE":0,"CLASSIFICATION_TYPE":"U","NORAD_CAT_ID":65687,"ELEMENT_SET_NO":999,"REV_AT_EPOCH":2877,"BSTAR":0.00039053918,"MEAN_MOTION_DOT":0.00011226,"MEAN_MOTION_DDOT":0},{"OBJECT_NAME":"STARLINK-34930","OBJECT_ID":"2025-212N","EPOCH":"2026-03-21T13:39:02.010528","MEAN_MOTION":15.3023324,"ECCENTRICITY":0.00018248,"INCLINATION":53.1586,"RA_OF_ASC_NODE":290.3974,"ARG_OF_PERICENTER":87.458,"MEAN_ANOMALY":272.663,"EPHEMERIS_TYPE":0,"CLASSIFICATION_TYPE":"U","NORAD_CAT_ID":65688,"ELEMENT_SET_NO":999,"REV_AT_EPOCH":2906,"BSTAR":0.00097068515,"MEAN_MOTION_DOT":0.0002853,"MEAN_MOTION_DDOT":0},{"OBJECT_NAME":"STARLINK-34875","OBJECT_ID":"2025-212P","EPOCH":"2026-03-20T21:02:26.739168","MEAN_MOTION":15.30200793,"ECCENTRICITY":7.68e-5,"INCLINATION":53.1575,"RA_OF_ASC_NODE":293.9008,"ARG_OF_PERICENTER":307.0945,"MEAN_ANOMALY":52.9985,"EPHEMERIS_TYPE":0,"CLASSIFICATION_TYPE":"U","NORAD_CAT_ID":65689,"ELEMENT_SET_NO":999,"REV_AT_EPOCH":2895,"BSTAR":0.000452437,"MEAN_MOTION_DOT":0.00013065,"MEAN_MOTION_DDOT":0},{"OBJECT_NAME":"STARLINK-34790","OBJECT_ID":"2025-212Q","EPOCH":"2026-03-21T14:12:27.790848","MEAN_MOTION":15.30229583,"ECCENTRICITY":0.00012607,"INCLINATION":53.1586,"RA_OF_ASC_NODE":290.5427,"ARG_OF_PERICENTER":83.2728,"MEAN_ANOMALY":276.8416,"EPHEMERIS_TYPE":0,"CLASSIFICATION_TYPE":"U","NORAD_CAT_ID":65690,"ELEMENT_SET_NO":999,"REV_AT_EPOCH":2901,"BSTAR":0.00083385269,"MEAN_MOTION_DOT":0.00024441,"MEAN_MOTION_DDOT":0},{"OBJECT_NAME":"STARLINK-34691","OBJECT_ID":"2025-212R","EPOCH":"2026-03-20T13:30:20.248704","MEAN_MOTION":15.30249342,"ECCENTRICITY":4.44e-5,"INCLINATION":53.1607,"RA_OF_ASC_NODE":284.7911,"ARG_OF_PERICENTER":120.5759,"MEAN_ANOMALY":239.5286,"EPHEMERIS_TYPE":0,"CLASSIFICATION_TYPE":"U","NORAD_CAT_ID":65691,"ELEMENT_SET_NO":999,"REV_AT_EPOCH":2905,"BSTAR":0.00089830658,"MEAN_MOTION_DOT":0.00026381,"MEAN_MOTION_DDOT":0},{"OBJECT_NAME":"STARLINK-34825","OBJECT_ID":"2025-212S","EPOCH":"2026-03-21T13:48:08.915616","MEAN_MOTION":15.30234239,"ECCENTRICITY":0.00011573,"INCLINATION":53.1582,"RA_OF_ASC_NODE":290.438,"ARG_OF_PERICENTER":81.3575,"MEAN_ANOMALY":278.7557,"EPHEMERIS_TYPE":0,"CLASSIFICATION_TYPE":"U","NORAD_CAT_ID":65692,"ELEMENT_SET_NO":999,"REV_AT_EPOCH":2905,"BSTAR":0.001031696,"MEAN_MOTION_DOT":0.00030354,"MEAN_MOTION_DDOT":0}]
